IRIDIUM 921             
1 24873U 97034E   24341.92976267  .00132988  00000+0  12048-2 0  9996
2 24873  86.3713 201.1747 0002849  48.3073 311.8439 15.67634513501932
IRIDIUM 26              
1 24903U 97043A   24342.13856989  .00000817  00000+0  27013-3 0  9996
2 24903  86.3987 191.2087 0002069  79.9134 280.2296 14.36835789429636
IRIDIUM 22              
1 24907U 97043E   24341.91176934  .00000762  00000+0  25746-3 0  9990
2 24907  86.3992 194.6744 0001968  86.3897 273.7525 14.35683267429181
DUMMY MASS 1            
1 24925U 97048A   24341.93611703  .00000952  00000+0  10399-3 0  9994
2 24925  86.3370 224.1351 0009016 102.8145 257.4088 14.86663184476565
DUMMY MASS 2            
1 24926U 97048B   24341.93368846  .00000947  00000+0  10407-3 0  9996
2 24926  86.3369 225.7083 0009646 111.9761 248.2490 14.86417888476346
IRIDIUM 29              
1 24944U 97051A   24342.48748046  .00000896  00000+0  30098-3 0  9996
2 24944  86.3980 224.2207 0002089  88.8604 271.2832 14.36149606425973
IRIDIUM 33              
1 24946U 97051C   24342.47415650  .00000625  00000+0  21412-3 0  9999
2 24946  86.3897 223.4742 0007784 359.2236   0.8947 14.34678339425263
IRIDIUM 28              
1 24948U 97051E   24341.95885456  .00000817  00000+0  26856-3 0  9998
2 24948  86.3989 222.0682 0002118  70.9905 289.1521 14.37095660426232
